{"type": "FeatureCollection", "features": [ {"type": "Feature", "properties": {"norad_id": 66896, "name": "STARLINK-35791", "group": "last-30-days", "lat": 38.84539862255474, "lon": 89.52323399126901, "alt_km": 311.1809459613096, "timestamp": "2025-12-16T23:36:34.925227+00:00", "meta": {"OBJECT_NAME": "STARLINK-35791", "OBJECT_ID": "2025-283U", "EPOCH": "2025-12-16T05:14:21.930432", "MEAN_MOTION": 15.86053588, "ECCENTRICITY": 0.00015436, "INCLINATION": 53.1546, "RA_OF_ASC_NODE": 56.2376, "ARG_OF_PERICENTER": 312.2852, "MEAN_ANOMALY": 47.8042, "EPHEMERIS_TYPE": 0, "CLASSIFICATION_TYPE": "U", "NORAD_CAT_ID": 66896, "ELEMENT_SET_NO": 999, "REV_AT_EPOCH": 300, "BSTAR": -0.0027170734, "MEAN_MOTION_DOT": -0.00638881, "MEAN_MOTION_DDOT": 0}, "tle": {"line1": "1 66896U 25283U   25350.21830938 -.00638881  00000+0 -27171-2 0  9999", "line2": "2 66896  53.1546  56.2376 0001543 312.2852  47.8042 15.86053588  3003"}}, "geometry": {"type": "Point", "coordinates": [89.52323399126901, 38.84539862255474]}}, {"type": "Feature", "properties": {"norad_id": 66897, "name": "STARLINK-36079", "group": "last-30-days", "lat": 44.93801525667664, "lon": 100.79291471056804, "alt_km": 305.30707468549826, "timestamp": "2025-12-16T23:36:34.925237+00:00", "meta": {"OBJECT_NAME": "STARLINK-36079", "OBJECT_ID": "2025-283V", "EPOCH": "2025-12-16T05:13:01.425504", "MEAN_MOTION": 15.86956658, "ECCENTRICITY": 0.00048335, "INCLINATION": 53.1545, "RA_OF_ASC_NODE": 56.2318, "ARG_OF_PERICENTER": 212.663, "MEAN_ANOMALY": 147.4097, "EPHEMERIS_TYPE": 0, "CLASSIFICATION_TYPE": "U", "NORAD_CAT_ID": 66897, "ELEMENT_SET_NO": 999, "REV_AT_EPOCH": 300, "BSTAR": 0.002056577, "MEAN_MOTION_DOT": 0.00578477, "MEAN_MOTION_DDOT": 0}, "tle": {"line1": "1 66897U 25283V   25350.21737761  .00578477  00000+0  20566-2 0  9993", "line2": "2 66897  53.1545  56.2318 0004833 212.6630 147.4097 15.86956658  3008"}}, "geometry": {"type": "Point", "coordinates": [100.79291471056804, 44.93801525667664]}}, {"type": "Feature", "properties": {"norad_id": 66898, "name": "STARLINK-36065", "group": "last-30-days", "lat": 43.76815532891901, "lon": 98.27292706370622, "alt_km": 308.80587093572194, "timestamp": "2025-12-16T23:36:34.925247+00:00", "meta": {"OBJECT_NAME": "STARLINK-36065", "OBJECT_ID": "2025-283W", "EPOCH": "2025-12-16T08:13:50.530944", "MEAN_MOTION": 15.85783112, "ECCENTRICITY": 0.00029326, "INCLINATION": 53.1541, "RA_OF_ASC_NODE": 55.5915, "ARG_OF_PERICENTER": 349.8156, "MEAN_ANOMALY": 10.2809, "EPHEMERIS_TYPE": 0, "CLASSIFICATION_TYPE": "U", "NORAD_CAT_ID": 66898, "ELEMENT_SET_NO": 999, "REV_AT_EPOCH": 302, "BSTAR": -0.0015029311, "MEAN_MOTION_DOT": -0.00360277, "MEAN_MOTION_DDOT": 0}, "tle": {"line1": "1 66898U 25283W   25350.34294596 -.00360277  00000+0 -15029-2 0  9999", "line2": "2 66898  53.1541  55.5915 0002932 349.8156  10.2809 15.85783112  3026"}}, "geometry": {"type": "Point", "coordinates": [98.27292706370622, 43.76815532891901]}}, {"type": "Feature", "properties": {"norad_id": 66899, "name": "STARLINK-36064", "group": "last-30-days", "lat": 45.15175775400067, "lon": 101.27910853442663, "alt_km": 309.2120090836652, "timestamp": "2025-12-16T23:36:34.925282+00:00", "meta": {"OBJECT_NAME": "STARLINK-36064", "OBJECT_ID": "2025-283X", "EPOCH": "2025-12-16T08:13:09.996384", "MEAN_MOTION": 15.85752214, "ECCENTRICITY": 0.00029648, "INCLINATION": 53.1541, "RA_OF_ASC_NODE": 55.5886, "ARG_OF_PERICENTER": 340.0075, "MEAN_ANOMALY": 20.0833, "EPHEMERIS_TYPE": 0, "CLASSIFICATION_TYPE": "U", "NORAD_CAT_ID": 66899, "ELEMENT_SET_NO": 999, "REV_AT_EPOCH": 302, "BSTAR": -0.0016500877, "MEAN_MOTION_DOT": -0.00393439, "MEAN_MOTION_DDOT": 0}, "tle": {"line1": "1 66899U 25283X   25350.34247681 -.00393439  00000+0 -16501-2 0  9995", "line2": "2 66899  53.1541  55.5886 0002964 340.0075  20.0833 15.85752214  3027"}}, "geometry": {"type": "Point", "coordinates": [101.27910853442663, 45.15175775400067]}}, {"type": "Feature", "properties": {"norad_id": 66900, "name": "STARLINK-36074", "group": "last-30-days", "lat": 51.61092721003603, "lon": 123.48974236877483, "alt_km": 296.37011462742885, "timestamp": "2025-12-16T23:36:34.925470+00:00", "meta": {"OBJECT_NAME": "STARLINK-36074", "OBJECT_ID": "2025-283Y", "EPOCH": "2025-12-15T21:37:01.756992", "MEAN_MOTION": 15.88236866, "ECCENTRICITY": 8.782e-05, "INCLINATION": 53.1545, "RA_OF_ASC_NODE": 57.8112, "ARG_OF_PERICENTER": 52.2538, "MEAN_ANOMALY": 307.8567, "EPHEMERIS_TYPE": 0, "CLASSIFICATION_TYPE": "U", "NORAD_CAT_ID": 66900, "ELEMENT_SET_NO": 999, "REV_AT_EPOCH": 295, "BSTAR": 0.0019410025, "MEAN_MOTION_DOT": 0.00581649, "MEAN_MOTION_DDOT": 0}, "tle": {"line1": "1 66900U 25283Y   25349.90071478  .00581649  00000+0  19410-2 0  9999", "line2": "2 66900  53.1545  57.8112 0000878  52.2538 307.8567 15.88236866  2953"}}, "geometry": {"type": "Point", "coordinates": [123.48974236877483, 51.61092721003603]}}, {"type": "Feature", "properties": {"norad_id": 66901, "name": "STARLINK-36043", "group": "last-30-days", "lat": 48.08740663592493, "lon": 108.99536717108442, "alt_km": 319.26829775499755, "timestamp": "2025-12-16T23:36:34.925484+00:00", "meta": {"OBJECT_NAME": "STARLINK-36043", "OBJECT_ID": "2025-283Z", "EPOCH": "2025-12-16T08:11:02.817312", "MEAN_MOTION": 15.86245942, "ECCENTRICITY": 0.00116527, "INCLINATION": 53.1547, "RA_OF_ASC_NODE": 55.5785, "ARG_OF_PERICENTER": 310.976, "MEAN_ANOMALY": 49.0256, "EPHEMERIS_TYPE": 0, "CLASSIFICATION_TYPE": "U", "NORAD_CAT_ID": 66901, "ELEMENT_SET_NO": 999, "REV_AT_EPOCH": 302, "BSTAR": -0.011424595, "MEAN_MOTION_DOT": -0.02528635, "MEAN_MOTION_DDOT": 0}, "tle": {"line1": "1 66901U 25283Z   25350.34100483 -.02528635  00000+0 -11425-1 0  9996", "line2": "2 66901  53.1547  55.5785 0011652 310.9760  49.0256 15.86245942  3022"}}, "geometry": {"type": "Point", "coordinates": [108.99536717108442, 48.08740663592493]}}, {"type": "Feature", "properties": {"norad_id": 66902, "name": "STARLINK-35983", "group": "last-30-days", "lat": 49.499023908267944, "lon": 113.73126313291863, "alt_km": 314.9950634427296, "timestamp": "2025-12-16T23:36:34.925499+00:00", "meta": {"OBJECT_NAME": "STARLINK-35983", "OBJECT_ID": "2025-283AA", "EPOCH": "2025-12-16T05:08:54.302496", "MEAN_MOTION": 15.86199889, "ECCENTRICITY": 0.00040802, "INCLINATION": 53.1543, "RA_OF_ASC_NODE": 56.2118, "ARG_OF_PERICENTER": 285.3678, "MEAN_ANOMALY": 74.6896, "EPHEMERIS_TYPE": 0, "CLASSIFICATION_TYPE": "U", "NORAD_CAT_ID": 66902, "ELEMENT_SET_NO": 999, "REV_AT_EPOCH": 300, "BSTAR": -0.0062121193, "MEAN_MOTION_DOT": -0.01383847, "MEAN_MOTION_DDOT": 0}, "tle": {"line1": "1 66902U 25283AA  25350.21451739 -.01383847  00000+0 -62121-2 0  9999", "line2": "2 66902  53.1543  56.2118 0004080 285.3678  74.6896 15.86199889  3007"}}, "geometry": {"type": "Point", "coordinates": [113.73126313291863, 49.499023908267944]}}, {"type": "Feature", "properties": {"norad_id": 66903, "name": "STARLINK-36077", "group": "last-30-days", "lat": 50.40039640209493, "lon": 117.34766056303314, "alt_km": 315.2892449889832, "timestamp": "2025-12-16T23:36:34.925510+00:00", "meta": {"OBJECT_NAME": "STARLINK-36077", "OBJECT_ID": "2025-283AB", "EPOCH": "2025-12-16T05:08:15.800928", "MEAN_MOTION": 15.86224281, "ECCENTRICITY": 0.00043042, "INCLINATION": 53.1547, "RA_OF_ASC_NODE": 56.2089, "ARG_OF_PERICENTER": 283.6545, "MEAN_ANOMALY": 76.4001, "EPHEMERIS_TYPE": 0, "CLASSIFICATION_TYPE": "U", "NORAD_CAT_ID": 66903, "ELEMENT_SET_NO": 999, "REV_AT_EPOCH": 300, "BSTAR": -0.0064254703, "MEAN_MOTION_DOT": -0.01426879, "MEAN_MOTION_DDOT": 0}, "tle": {"line1": "1 66903U 25283AB  25350.21407177 -.01426879  00000+0 -64255-2 0  9990", "line2": "2 66903  53.1547  56.2089 0004304 283.6545  76.4001 15.86224281  3005"}}, "geometry": {"type": "Point", "coordinates": [117.34766056303314, 50.40039640209493]}}, {"type": "Feature", "properties": {"norad_id": 66904, "name": "STARLINK-36059", "group": "last-30-days", "lat": 51.42183712541223, "lon": 122.39052216348807, "alt_km": 304.493821921832, "timestamp": "2025-12-16T23:36:34.925520+00:00", "meta": {"OBJECT_NAME": "STARLINK-36059", "OBJECT_ID": "2025-283AC", "EPOCH": "2025-12-16T08:09:52.269984", "MEAN_MOTION": 15.86148148, "ECCENTRICITY": 0.00033992, "INCLINATION": 53.1541, "RA_OF_ASC_NODE": 55.5728, "ARG_OF_PERICENTER": 167.9998, "MEAN_ANOMALY": 192.1108, "EPHEMERIS_TYPE": 0, "CLASSIFICATION_TYPE": "U", "NORAD_CAT_ID": 66904, "ELEMENT_SET_NO": 999, "REV_AT_EPOCH": 302, "BSTAR": 0.0020006915, "MEAN_MOTION_DOT": 0.00538448, "MEAN_MOTION_DDOT": 0}, "tle": {"line1": "1 66904U 25283AC  25350.34018831  .00538448  00000+0  20007-2 0  9990", "line2": "2 66904  53.1541  55.5728 0003399 167.9998 192.1108 15.86148148  3024"}}, "geometry": {"type": "Point", "coordinates": [122.39052216348807, 51.42183712541223]}}, {"type": "Feature", "properties": {"norad_id": 66905, "name": "STARLINK-36075", "group": "last-30-days", "lat": 51.97222546482507, "lon": 125.82269383948343, "alt_km": 306.38199168131996, "timestamp": "2025-12-16T23:36:34.925530+00:00", "meta": {"OBJECT_NAME": "STARLINK-36075", "OBJECT_ID": "2025-283AD", "EPOCH": "2025-12-16T08:09:17.350560", "MEAN_MOTION": 15.86132162, "ECCENTRICITY": 0.00043288, "INCLINATION": 53.1544, "RA_OF_ASC_NODE": 55.5703, "ARG_OF_PERICENTER": 210.6645, "MEAN_ANOMALY": 149.4127, "EPHEMERIS_TYPE": 0, "CLASSIFICATION_TYPE": "U", "NORAD_CAT_ID": 66905, "ELEMENT_SET_NO": 999, "REV_AT_EPOCH": 302, "BSTAR": 0.0018814578, "MEAN_MOTION_DOT": 0.00503978, "MEAN_MOTION_DDOT": 0}, "tle": {"line1": "1 66905U 25283AD  25350.33978415  .00503978  00000+0  18815-2 0  9997", "line2": "2 66905  53.1544  55.5703 0004328 210.6645 149.4127 15.86132162  3024"}}, "geometry": {"type": "Point", "coordinates": [125.82269383948343, 51.97222546482507]}}]}